NORAD_CAT_ID,OBJECT_NAME,OBJECT_TYPE,EPOCH,MEAN_MOTION,ECCENTRICITY,INCLINATION,RA_OF_ASC_NODE,ARG_OF_PERICENTER,MEAN_ANOMALY,BSTAR,MEAN_MOTION_DOT,MEAN_MOTION_DDOT,TLE_LINE0,TLE_LINE1,TLE_LINE2,SEMIMAJOR_AXIS,PERIOD,APOGEE,PERIGEE,DECAYED
54776.0,STARLINK-5470,PAYLOAD,2024-02-24 13:00:23,15.08846513,0.0001578,53.2178,144.338,100.7138,259.4032,0.00028685,4.281e-05,0.0,0 STARLINK-5470,1 54776U 22175U   24055.54193563  .00004281  00000-0  28685-3 0  9995,2 54776  53.2178 144.3380 0001578 100.7138 259.4032 15.08846513 67583,6917.86,95.437,540.817,538.634,0.0
54776.0,STARLINK-5470,PAYLOAD,2024-02-25 11:15:47,15.08837222,0.0001576,53.2173,140.1761,104.7398,255.3769,7.9295e-05,9.74e-06,0.0,0 STARLINK-5470,1 54776U 22175U   24056.46930111  .00000974  00000-0  79295-4 0  9994,2 54776  53.2173 140.1761 0001576 104.7398 255.3769 15.08837222 65560,6917.889,95.438,540.844,538.664,0.0
54776.0,STARLINK-5470,PAYLOAD,2024-02-25 14:26:33,15.08846064,0.0001522,53.2172,139.581,104.6302,255.4859,0.00019966,2.892e-05,0.0,0 STARLINK-5470,1 54776U 22175U   24056.60177682  .00002892  00000-0  19966-3 0  9995,2 54776  53.2172 139.5810 0001522 104.6302 255.4859 15.08846064 67748,6917.862,95.437,540.78,538.674,0.0
54776.0,STARLINK-5470,PAYLOAD,2024-02-25 22:23:29,15.08847676,0.000164,53.2178,138.0913,88.839,271.279,0.00017482,2.496e-05,0.0,0 STARLINK-5470,1 54776U 22175U   24056.93297637  .00002496  00000-0  17482-3 0  9995,2 54776  53.2178 138.0913 0001640  88.8390 271.2790 15.08847676 67798,6917.857,95.437,540.856,538.587,0.0
54776.0,STARLINK-5470,PAYLOAD,2024-02-26 14:17:20,15.08851432,0.000139,53.2158,135.1188,85.8851,274.23,0.00015571,2.192e-05,0.0,0 STARLINK-5470,1 54776U 22175U   24057.59537126  .00002192  00000-0  15571-3 0  9998,2 54776  53.2158 135.1188 0001390  85.8851 274.2300 15.08851432 67895,6917.845,95.437,540.672,538.749,0.0
54776.0,STARLINK-5470,PAYLOAD,2024-02-27 10:57:21,15.08840208,0.0001435,53.2173,131.2512,103.4605,256.6547,-3.953e-06,-3.51e-06,0.0,0 STARLINK-5470,1 54776U 22175U   24058.45649741 -.00000351  00000-0 -39530-5 0  9991,2 54776  53.2173 131.2512 0001435 103.4605 256.6547 15.08840208 65865,6917.88,95.438,540.737,538.752,0.0
54776.0,STARLINK-5470,PAYLOAD,2024-02-27 12:32:44,15.08841438,0.000148,53.2165,130.955,83.0473,277.0688,4.5517e-05,4.37e-06,0.0,0 STARLINK-5470,1 54776U 22175U   24058.52273732  .00000437  00000-0  45517-4 0  9996,2 54776  53.2165 130.9550 0001480  83.0473 277.0688 15.08841438 68031,6917.876,95.437,540.765,538.717,0.0
54776.0,STARLINK-5470,PAYLOAD,2024-02-27 22:05:03,15.08837327,0.0001344,53.2159,129.1686,96.2497,263.8648,1.0901e-06,-2.71e-06,0.0,0 STARLINK-5470,1 54776U 22175U   24058.92017907 -.00000271  00000-0  10901-5 0  9997,2 54776  53.2159 129.1686 0001344  96.2497 263.8648 15.08837327 68092,6917.889,95.438,540.683,538.824,0.0
54776.0,STARLINK-5470,PAYLOAD,2024-02-28 10:48:08,15.08840417,0.0001327,53.2168,126.7898,90.3682,269.7462,4.5044e-05,4.29e-06,0.0,0 STARLINK-5470,1 54776U 22175U   24059.45009998  .00000429  00000-0  45044-4 0  9996,2 54776  53.2168 126.7898 0001327  90.3682 269.7462 15.08840417 68174,6917.879,95.438,540.662,538.826,0.0
54776.0,STARLINK-5470,PAYLOAD,2024-02-29 04:17:23,15.08835768,0.000146,53.2169,123.5185,100.5244,259.5913,0.00014334,1.994e-05,0.0,0 STARLINK-5470,1 54776U 22175U   24060.17873992  .00001994  00000-0  14334-3 0  9995,2 54776  53.2169 123.5185 0001460 100.5244 259.5913 15.08835768 66129,6917.893,95.438,540.768,538.748,0.0
54776.0,STARLINK-5470,PAYLOAD,2024-02-29 10:38:55,15.08846248,0.0001392,53.2168,122.3296,94.3176,265.7976,9.035e-05,1.151e-05,0.0,0 STARLINK-5470,1 54776U 22175U   24060.44369610  .00001151  00000-0  90350-4 0  9990,2 54776  53.2168 122.3296 0001392  94.3176 265.7976 15.08846248 68323,6917.861,95.437,540.689,538.763,0.0
54776.0,STARLINK-5470,PAYLOAD,2024-03-01 04:08:10,15.08825921,0.0001565,53.2175,119.0604,94.7074,265.4096,0.00026254,3.891e-05,0.0,0 STARLINK-5470,1 54776U 22175U   24061.17234603  .00003891  00000-0  26254-3 0  9998,2 54776  53.2175 119.0604 0001565  94.7074 265.4096 15.08825921 66277,6917.923,95.438,540.871,538.706,0.0
54776.0,STARLINK-5470,PAYLOAD,2024-03-01 10:29:42,15.08840734,0.0001241,53.2171,117.8703,92.4667,267.6468,0.00012302,1.671e-05,0.0,0 STARLINK-5470,1 54776U 22175U   24061.43729876  .00001671  00000-0  12302-3 0  9991,2 54776  53.2171 117.8703 0001241  92.4667 267.6468 15.08840734 66314,6917.878,95.438,540.602,538.885,0.0
54776.0,STARLINK-5470,PAYLOAD,2024-03-02 08:45:06,15.0884364,0.0001431,53.2171,113.7083,96.2839,263.8316,7.2598e-05,8.68e-06,0.0,0 STARLINK-5470,1 54776U 22175U   24062.36465821  .00000868  00000-0  72598-4 0  9992,2 54776  53.2171 113.7083 0001431  96.2839 263.8316 15.08843640 68618,6917.869,95.437,540.724,538.744,0.0
54776.0,STARLINK-5470,PAYLOAD,2024-03-03 02:14:20,15.08878444,0.0001178,53.2171,110.4382,102.2934,257.819,-0.00051436,-8.473e-05,0.0,0 STARLINK-5470,1 54776U 22175U   24063.09329640 -.00008473  00000-0 -51436-3 0  9990,2 54776  53.2171 110.4382 0001178 102.2934 257.8190 15.08878444 66561,6917.763,95.435,540.443,538.813,0.0
54776.0,STARLINK-5470,PAYLOAD,2024-03-03 10:11:17,15.08835734,0.0001335,53.2169,108.9492,92.0601,268.0544,-2.0028e-05,-6.07e-06,0.0,0 STARLINK-5470,1 54776U 22175U   24063.42450673 -.00000607  00000-0 -20028-4 0  9993,2 54776  53.2169 108.9492 0001335  92.0601 268.0544 15.08835734 66612,6917.893,95.438,540.682,538.835,0.0
54776.0,STARLINK-5470,PAYLOAD,2024-03-04 11:37:26,15.08847364,0.0001467,53.2164,104.1914,93.8445,266.2715,0.00053911,8.304e-05,0.0,0 STARLINK-5470,1 54776U 22175U   24064.48433736  .00008304  00000-0  53911-3 0  9997,2 54776  53.2164 104.1914 0001467  93.8445 266.2715 15.08847364 66774,6917.858,95.437,540.738,538.708,0.0
54776.0,STARLINK-5470,PAYLOAD,2024-03-05 01:55:56,15.08826956,0.0001609,53.2155,101.5146,80.7937,279.3237,-2.3222e-05,-6.57e-06,0.0,0 STARLINK-5470,1 54776U 22175U   24065.08051114 -.00000657  00000-0 -23222-4 0  9998,2 54776  53.2155 101.5146 0001609  80.7937 279.3237 15.08826956 66869,6917.92,95.438,540.898,538.672,0.0
54776.0,STARLINK-5470,PAYLOAD,2024-03-05 11:28:14,15.08828866,0.0001546,53.2159,99.731,90.5993,269.5176,-3.0951e-05,-7.8e-06,0.0,0 STARLINK-5470,1 54776U 22175U   24065.47795049 -.00000780  00000-0 -30951-4 0  9997,2 54776  53.2159  99.7310 0001546  90.5993 269.5176 15.08828866 69087,6917.914,95.438,540.849,538.71,0.0
54776.0,STARLINK-5470,PAYLOAD,2024-03-05 19:25:10,15.08830158,0.0001405,53.2155,98.2437,101.0025,259.1126,0.00051578,7.928e-05,0.0,0 STARLINK-5470,1 54776U 22175U   24065.80915324  .00007928  00000-0  51578-3 0  9990,2 54776  53.2155  98.2437 0001405 101.0025 259.1126 15.08830158 66977,6917.91,95.438,540.747,538.804,0.0
54776.0,STARLINK-5470,PAYLOAD,2024-03-06 11:19:02,15.08847083,0.0001472,53.2154,95.2691,102.0417,258.074,0.00077158,0.00012015,0.0,0 STARLINK-5470,1 54776U 22175U   24066.47155318  .00012015  00000-0  77158-3 0  9998,2 54776  53.2154  95.2691 0001472 102.0417 258.0740 15.08847083 69232,6917.859,95.437,540.742,538.705,0.0
54776.0,STARLINK-5470,PAYLOAD,2024-03-07 11:09:48,15.08852163,0.0001569,53.216,90.8075,100.1217,259.9953,0.00041559,6.334e-05,0.0,0 STARLINK-5470,1 54776U 22175U   24067.46514991  .00006334  00000-0  41559-3 0  9997,2 54776  53.2160  90.8075 0001569 100.1217 259.9953 15.08852163 69387,6917.843,95.437,540.794,538.623,0.0
54776.0,STARLINK-5470,PAYLOAD,2024-03-08 01:28:17,15.08848895,0.0001642,53.2164,88.1289,104.3678,255.7496,0.00021714,3.17e-05,0.0,0 STARLINK-5470,1 54776U 22175U   24068.06130803  .00003170  00000-0  21714-3 0  9996,2 54776  53.2164  88.1289 0001642 104.3678 255.7496 15.08848895 67311,6917.853,95.437,540.854,538.582,0.0
54776.0,STARLINK-5470,PAYLOAD,2024-03-08 07:49:49,15.08847649,0.0001425,53.2164,86.9401,94.1431,265.9724,0.00015496,2.18e-05,0.0,0 STARLINK-5470,1 54776U 22175U   24068.32626845  .00002180  00000-0  15496-3 0  9991,2 54776  53.2164  86.9401 0001425  94.1431 265.9724 15.08847649 69512,6917.857,95.437,540.708,538.736,0.0
54776.0,STARLINK-5470,PAYLOAD,2024-03-09 04:29:50,15.08838092,0.0001519,53.216,83.0753,93.1921,266.9245,1.9264e-06,-2.57e-06,0.0,0 STARLINK-5470,1 54776U 22175U   24069.18739216 -.00000257  00000-0  19264-5 0  9996,2 54776  53.2160  83.0753 0001519  93.1921 266.9245 15.08838092 67488,6917.886,95.438,540.802,538.7,0.0
54776.0,STARLINK-5470,PAYLOAD,2024-03-09 07:40:36,15.08840227,0.0001387,53.2169,82.4819,92.0704,268.0447,5.2126e-05,5.42e-06,0.0,0 STARLINK-5470,1 54776U 22175U   24069.31987231  .00000542  00000-0  52126-4 0  9992,2 54776  53.2169  82.4819 0001387  92.0704 268.0447 15.08840227 69665,6917.88,95.438,540.704,538.785,0.0
54776.0,STARLINK-5470,PAYLOAD,2024-03-09 17:12:55,15.08844539,0.0001456,53.2175,80.6984,91.3258,268.7901,3.4673e-05,2.64e-06,0.0,0 STARLINK-5470,1 54776U 22175U   24069.71730888  .00000264  00000-0  34673-4 0  9998,2 54776  53.2175  80.6984 0001456  91.3258 268.7901 15.08844539 69727,6917.867,95.437,540.739,538.724,0.0
54776.0,STARLINK-5470,PAYLOAD,2024-03-10 07:31:23,15.0883912,0.0001589,53.2178,78.0238,96.6462,263.4711,9.2258e-05,1.181e-05,0.0,0 STARLINK-5470,1 54776U 22175U   24070.31347167  .00001181  00000-0  92258-4 0  9992,2 54776  53.2178  78.0238 0001589  96.6462 263.4711 15.08839120 67656,6917.883,95.438,540.847,538.649,0.0
54776.0,STARLINK-5470,PAYLOAD,2024-03-10 17:03:42,15.08841658,0.0001242,53.2178,76.2372,87.1145,272.9989,0.0002605,3.861e-05,0.0,0 STARLINK-5470,1 54776U 22175U   24070.71090557  .00003861  00000-0  26050-3 0  9997,2 54776  53.2178  76.2372 0001242  87.1145 272.9989 15.08841658 69871,6917.875,95.437,540.6,538.881,0.0
54776.0,STARLINK-5470,PAYLOAD,2024-03-11 07:22:11,15.08834003,0.0001558,53.2178,73.5628,91.0083,269.1087,6.0792e-05,6.79e-06,0.0,0 STARLINK-5470,1 54776U 22175U   24071.30707762  .00000679  00000-0  60792-4 0  9992,2 54776  53.2178  73.5628 0001558  91.0083 269.1087 15.08834003 67804,6917.899,95.438,540.842,538.686,0.0
